STARLINK-1255
1 45399U 20019AR  26060.50549180  .00094688  00000+0  16383-2 0  9995
2 45399  53.0425 142.0782 0002142 253.7300 106.3473 15.50186420329161
